SPACEMOBILE-003         
1 61045U 24163A   26177.81235899  .00001689  00000+0  90246-4 0  9998
2 61045  52.9744 265.1828 0005991 141.0621 219.0806 15.20822722 99230
SPACEMOBILE-005         
1 61046U 24163B   26187.32459636 -.00004321  00000+0 -17865-3 0  9996
2 61046  52.9788 221.3760 0009297 169.9979 190.1202 15.20800178100677
SPACEMOBILE-001         
1 61047U 24163C   26187.58603882  .00001897  00000+0  99523-4 0  9994
2 61047  52.9741 219.8899 0007438 169.1843 190.9313 15.20820517100714
SPACEMOBILE-002         
1 61048U 24163D   26187.57009700  .00004308  00000+0  20708-3 0  9991
2 61048  52.9753 220.0040 0006454 165.9423 194.1752 15.20857755100712
SPACEMOBILE-004         
1 61049U 24163E   26187.48682538  .00011231  00000+0  51661-3 0  9993
2 61049  52.9667 220.1743 0007073 196.8401 163.2360 15.20801145100708
SPACEMOBILE-001 DEB     
1 62369U 24163F   26188.04222017  .00005842  00000+0  17889-3 0  9999
2 62369  52.9926 185.8390 0005980 222.2687 137.7854 15.35284778 89558
SPACEMOBILE-002 DEB     
1 62370U 24163G   26187.99880700  .00013902  00000+0  31297-3 0  9998
2 62370  52.9410 170.7038 0004460 254.9629 105.0881 15.43590931101429
SPACEMOBILE-003 DEB     
1 62371U 24163H   26188.02070422  .00013382  00000+0  32495-3 0  9999
2 62371  52.9689 177.3452 0005670 206.7381 153.3330 15.41343868 94941
SPACEMOBILE-004 DEB     
1 62372U 24163J   26187.45132736  .00013191  00000+0  32860-3 0  9997
2 62372  52.9831 179.6382 0002967 227.1486 132.9268 15.40586872 97924
SPACEMOBILE-005 DEB     
1 62373U 24163K   26187.99546413  .00006648  00000+0  20671-3 0  9994
2 62373  52.9737 190.9324 0006000 200.3273 159.7489 15.34552491101168
SPACEMOBILE-006         
1 67232U 25309A   26188.18193633  .00000667  00000+0  47122-4 0  9996
2 67232  52.9952 240.0450 0010676 189.1004 170.9798 15.18643108 29630
SPACEMOBILE-008         
1 69589U 26139A   26187.69643315  .00000628  00000+0  52346-4 0  9998
2 69589  52.9937 173.9927 0004599  35.7409 324.3889 15.12793552  2938
SPACEMOBILE-009         
1 69590U 26139B   26187.69779587  .00000629  00000+0  52530-4 0  9997
2 69590  52.9928 173.9969 0004850  30.9893 329.1383 15.12686889  2936
SPACEMOBILE-010         
1 69591U 26139C   26187.69996036  .00000638  00000+0  53259-4 0  9997
2 69591  52.9932 174.0128 0004729  22.0048 338.1145 15.12518056  2947
